start=new Date('2022-01-19T00:00:00.000Z').valueOf();
sats=[{"ARG_OF_PERICENTER":"87.2151","PERIOD":"95.593","APOAPSIS":"548.201","INCLINATION":"53.0549","MEAN_MOTION_DOT":"-0.00001720","REV_AT_EPOCH":"3662","EPOCH":"2022-01-18T20:27:55.474560","DECAY_DATE":null,"MEAN_ANOMALY":"272.8991","EPHEMERIS_TYPE":"0","MEAN_MOTION":"15.06381359","OBJECT_NAME":"STARLINK-2166","OBJECT_TYPE":"PAYLOAD","RCS_SIZE":"LARGE","MEAN_MOTION_DDOT":"0.0000000000000","TIME_SYSTEM":"UTC","CENTER_NAME":"EARTH","REF_FRAME":"TEME","TLE_LINE1":"1 48558U 21041F   22018.85272540 -.00001720  00000-0 -96638-4 0  9992","SITE":"AFETR","GP_ID":"194155876","MEAN_ELEMENT_THEORY":"SGP4","COUNTRY_CODE":"US","SEMIMAJOR_AXIS":"6925.406","OBJECT_ID":"2021-041F","ELEMENT_SET_NO":"999","BSTAR":"-0.00009663800000","PERIAPSIS":"546.341","TLE_LINE2":"2 48558  53.0549  74.0329 0001343  87.2151 272.8991 15.06381359 36624","RA_OF_ASC_NODE":"74.0329","LAUNCH_DATE":"2021-05-15","ECCENTRICITY":"0.00013430","FILE":"3276875","NORAD_CAT_ID":"48558","CLASSIFICATION_TYPE":"U"},{"LAUNCH_DATE":"2021-05-15","ECCENTRICITY":"0.00013400","RA_OF_ASC_NODE":"75.9467","CLASSIFICATION_TYPE":"U","NORAD_CAT_ID":"48559","FILE":"3276616","SEMIMAJOR_AXIS":"6925.429","COUNTRY_CODE":"US","SITE":"AFETR","GP_ID":"194127806","MEAN_ELEMENT_THEORY":"SGP4","PERIAPSIS":"546.366","TLE_LINE2":"2 48559  53.0539  75.9467 0001340  82.7821 277.3320 15.06373712 37416","BSTAR":"-0.00024188000000","ELEMENT_SET_NO":"999","OBJECT_ID":"2021-041G","CENTER_NAME":"EARTH","MEAN_MOTION_DDOT":"0.0000000000000","TIME_SYSTEM":"UTC","REF_FRAME":"TEME","RCS_SIZE":"LARGE","TLE_LINE1":"1 48559U 21041G   22018.42420206 -.00003880  00000-0 -24188-3 0  9999","EPOCH":"2022-01-18T10:10:51.057984","REV_AT_EPOCH":"3741","INCLINATION":"53.0539","MEAN_MOTION_DOT":"-0.00003880","PERIOD":"95.594","ARG_OF_PERICENTER":"82.7821","APOAPSIS":"548.222","OBJECT_TYPE":"PAYLOAD","MEAN_MOTION":"15.06373712","EPHEMERIS_TYPE":"0","OBJECT_NAME":"STARLINK-2167","MEAN_ANOMALY":"277.3320","DECAY_DATE":null},{"TLE_LINE1":"1 48560U 21041H   22018.57021270 -.00022819  11178-4 -60324-4 0  9993","RCS_SIZE":"LARGE","REF_FRAME":"TEME","MEAN_MOTION_DDOT":"0.0000111780000","TIME_SYSTEM":"UTC","CENTER_NAME":"EARTH","DECAY_DATE":null,"MEAN_ANOMALY":"78.7144","OBJECT_NAME":"STARLINK-2173","MEAN_MOTION":"15.90802406","EPHEMERIS_TYPE":"0","OBJECT_TYPE":"PAYLOAD","APOAPSIS":"304.047","ARG_OF_PERICENTER":"281.3207","PERIOD":"90.520","MEAN_MOTION_DOT":"-0.00022819","INCLINATION":"53.0452","REV_AT_EPOCH":"3879","EPOCH":"2022-01-18T13:41:06.377280","FILE":"3276875","NORAD_CAT_ID":"48560","CLASSIFICATION_TYPE":"U","RA_OF_ASC_NODE":"43.1558","ECCENTRICITY":"0.00060030","LAUNCH_DATE":"2021-05-15","OBJECT_ID":"2021-041H","ELEMENT_SET_NO":"999","BSTAR":"-0.00006032400000","TLE_LINE2":"2 48560  53.0452  43.1558 0006003 281.3207  78.7144 15.90802406 38795","PERIAPSIS":"296.029","MEAN_ELEMENT_THEORY":"SGP4","GP_ID":"194156650","SITE":"AFETR","COUNTRY_CODE":"US","SEMIMAJOR_AXIS":"6678.173"},{"TLE_LINE1":"1 48561U 21041J   22018.91667824  .00044992  00000-0  30226-2 0  9991","REF_FRAME":"TEME","TIME_SYSTEM":"UTC","MEAN_MOTION_DDOT":"0.0000000000000","CENTER_NAME":"EARTH","RCS_SIZE":"LARGE","OBJECT_TYPE":"PAYLOAD","OBJECT_NAME":"STARLINK-2186","EPHEMERIS_TYPE":"0","MEAN_MOTION":"15.06370185","MEAN_ANOMALY":"117.0549","DECAY_DATE":null,"EPOCH":"2022-01-18T22:00:00.999936","REV_AT_EPOCH":"358","MEAN_MOTION_DOT":"0.00044992","INCLINATION":"53.0552","APOAPSIS":"548.303","ARG_OF_PERICENTER":"100.2304","PERIOD":"95.594","CLASSIFICATION_TYPE":"U","NORAD_CAT_ID":"48561","FILE":"3276875","ECCENTRICITY":"0.00014410","LAUNCH_DATE":"2021-05-15","RA_OF_ASC_NODE":"43.7517","TLE_LINE2":"2 48561  53.0552  43.7517 0001441 100.2304 117.0549 15.06370185  3582","PERIAPSIS":"546.307","BSTAR":"0.00302260000000","ELEMENT_SET_NO":"999","OBJECT_ID":"2021-041J","SEMIMAJOR_AXIS":"6925.440","COUNTRY_CODE":"US","MEAN_ELEMENT_THEORY":"SGP4","GP_ID":"194157395","SITE":"AFETR"},{"MEAN_ANOMALY":"245.5884","DECAY_DATE":null,"OBJECT_NAME":"STARLINK-2187","MEAN_MOTION":"15.06396899","EPHEMERIS_TYPE":"0","OBJECT_TYPE":"PAYLOAD","APOAPSIS":"548.179","ARG_OF_PERICENTER":"114.5249","PERIOD":"95.592","MEAN_MOTION_DOT":"-0.00001683","INCLINATION":"53.0560","REV_AT_EPOCH":"3745","EPOCH":"2022-01-18T15:09:25.991712","TLE_LINE1":"1 48562U 21041K   22018.63155083 -.00001683  00000-0 -94120-4 0  9997","RCS_SIZE":"LARGE","REF_FRAME":"TEME","MEAN_MOTION_DDOT":"0.0000000000000","CENTER_NAME":"EARTH","TIME_SYSTEM":"UTC","OBJECT_ID":"2021-041K","ELEMENT_SET_NO":"999","BSTAR":"-0.00009412000000","TLE_LINE2":"2 48562  53.0560  75.0312 0001381 114.5249 245.5884 15.06396899 37454","PERIAPSIS":"546.267","MEAN_ELEMENT_THEORY":"SGP4","SITE":"AFETR","GP_ID":"194156377","COUNTRY_CODE":"US","SEMIMAJOR_AXIS":"6925.358","FILE":"3276875","NORAD_CAT_ID":"48562","CLASSIFICATION_TYPE":"U","RA_OF_ASC_NODE":"75.0312","ECCENTRICITY":"0.00013810","LAUNCH_DATE":"2021-05-15"},{"TLE_LINE1":"1 48563U 21041L   22018.84904856 -.00002747  00000-0 -16572-3 0  9997","RCS_SIZE":"LARGE","REF_FRAME":"TEME","TIME_SYSTEM":"UTC","MEAN_MOTION_DDOT":"0.0000000000000","CENTER_NAME":"EARTH","OBJECT_NAME":"STARLINK-2188","MEAN_MOTION":"15.06373594","EPHEMERIS_TYPE":"0","OBJECT_TYPE":"PAYLOAD","DECAY_DATE":null,"MEAN_ANOMALY":"270.8905","REV_AT_EPOCH":"3748","EPOCH":"2022-01-18T20:22:37.795584","APOAPSIS":"548.277","ARG_OF_PERICENTER":"89.2247","PERIOD":"95.594","MEAN_MOTION_DOT":"-0.00002747","INCLINATION":"53.0553","NORAD_CAT_ID":"48563","CLASSIFICATION_TYPE":"U","FILE":"3276875","RA_OF_ASC_NODE":"74.0558","LAUNCH_DATE":"2021-05-15","ECCENTRICITY":"0.00014190","BSTAR":"-0.00016572000000","TLE_LINE2":"2 48563  53.0553  74.0558 0001419  89.2247 270.8905 15.06373594 37481","PERIAPSIS":"546.312","OBJECT_ID":"2021-041L","ELEMENT_SET_NO":"999","SEMIMAJOR_AXIS":"6925.429","MEAN_ELEMENT_THEORY":"SGP4","SITE":"AFETR","GP_ID":"194155899","COUNTRY_CODE":"US"},{"FILE":"3276875","CLASSIFICATION_TYPE":"U","NORAD_CAT_ID":"48564","LAUNCH_DATE":"2021-05-15","ECCENTRICITY":"0.00013960","RA_OF_ASC_NODE":"74.0924","ELEMENT_SET_NO":"999","OBJECT_ID":"2021-041M","TLE_LINE2":"2 48564  53.0547  74.0924 0001396  83.3188 276.7960 15.06390774 37480","PERIAPSIS":"546.275","BSTAR":"-0.00002523100000","COUNTRY_CODE":"US","MEAN_ELEMENT_THEORY":"SGP4","SITE":"AFETR","GP_ID":"194156150","SEMIMAJOR_AXIS":"6925.377","TLE_LINE1":"1 48564U 21041M   22018.84165968 -.00000657  00000-0 -25231-4 0  9992","REF_FRAME":"TEME","CENTER_NAME":"EARTH","MEAN_MOTION_DDOT":"0.0000000000000","TIME_SYSTEM":"UTC","RCS_SIZE":"LARGE","DECAY_DATE":null,"MEAN_ANOMALY":"276.7960","OBJECT_TYPE":"PAYLOAD","OBJECT_NAME":"STARLINK-2190","MEAN_MOTION":"15.06390774","EPHEMERIS_TYPE":"0","MEAN_MOTION_DOT":"-0.00000657","INCLINATION":"53.0547","APOAPSIS":"548.209","PERIOD":"95.593","ARG_OF_PERICENTER":"83.3188","EPOCH":"2022-01-18T20:11:59.396352","REV_AT_EPOCH":"3748"},{"OBJECT_TYPE":"PAYLOAD","EPHEMERIS_TYPE":"0","MEAN_MOTION":"15.07520336","OBJECT_NAME":"STARLINK-2191","DECAY_DATE":null,"MEAN_ANOMALY":"241.6899","EPOCH":"2022-01-18T10:32:52.019808","REV_AT_EPOCH":"3742","INCLINATION":"53.0571","MEAN_MOTION_DOT":"0.00369764","PERIOD":"95.521","ARG_OF_PERICENTER":"118.6462","APOAPSIS":"560.080","TLE_LINE1":"1 48565U 21041N   22018.43949097  .00369764  00000-0  22763-1 0  9990","MEAN_MOTION_DDOT":"0.0000000000000","CENTER_NAME":"EARTH","TIME_SYSTEM":"UTC","REF_FRAME":"TEME","RCS_SIZE":"LARGE","PERIAPSIS":"527.484","TLE_LINE2":"2 48565  53.0571  75.9053 0023546 118.6462 241.6899 15.07520336 37425","BSTAR":"0.02276300000000","ELEMENT_SET_NO":"999","OBJECT_ID":"2021-041N","SEMIMAJOR_AXIS":"6921.917","COUNTRY_CODE":"US","GP_ID":"194126805","SITE":"AFETR","MEAN_ELEMENT_THEORY":"SGP4","CLASSIFICATION_TYPE":"U","NORAD_CAT_ID":"48565","FILE":"3276616","LAUNCH_DATE":"2021-05-15","ECCENTRICITY":"0.00235460","RA_OF_ASC_NODE":"75.9053"},{"NORAD_CAT_ID":"48566","CLASSIFICATION_TYPE":"U","FILE":"3276875","RA_OF_ASC_NODE":"85.1855","LAUNCH_DATE":"2021-05-15","ECCENTRICITY":"0.00012670","BSTAR":"-0.00019339000000","PERIAPSIS":"546.315","TLE_LINE2":"2 48566  53.0566  85.1855 0001267  82.1732 277.9400 15.06406764 37308","OBJECT_ID":"2021-041P","ELEMENT_SET_NO":"999","SEMIMAJOR_AXIS":"6925.328","GP_ID":"194155877","SITE":"AFETR","MEAN_ELEMENT_THEORY":"SGP4","COUNTRY_CODE":"US","TLE_LINE1":"1 48566U 21041P   22018.59650768 -.00003161  00000-0 -19339-3 0  9997","RCS_SIZE":"LARGE","MEAN_MOTION_DDOT":"0.0000000000000","CENTER_NAME":"EARTH","TIME_SYSTEM":"UTC","REF_FRAME":"TEME","MEAN_MOTION":"15.06406764","EPHEMERIS_TYPE":"0","OBJECT_NAME":"STARLINK-2214","OBJECT_TYPE":"PAYLOAD","DECAY_DATE":null,"MEAN_ANOMALY":"277.9400","REV_AT_EPOCH":"3730","EPOCH":"2022-01-18T14:18:58.263552","ARG_OF_PERICENTER":"82.1732","PERIOD":"95.592","APOAPSIS":"548.070","INCLINATION":"53.0566","MEAN_MOTION_DOT":"-0.00003161"},{"RCS_SIZE":"LARGE","REF_FRAME":"TEME","MEAN_MOTION_DDOT":"0.0000000000000","TIME_SYSTEM":"UTC","CENTER_NAME":"EARTH","TLE_LINE1":"1 48567U 21041Q   22018.47583238 -.00003216  00000-0 -19717-3 0  9993","APOAPSIS":"548.053","PERIOD":"95.593","ARG_OF_PERICENTER":"88.1776","MEAN_MOTION_DOT":"-0.00003216","INCLINATION":"53.0555","REV_AT_EPOCH":"3728","EPOCH":"2022-01-18T11:25:11.917632","DECAY_DATE":null,"MEAN_ANOMALY":"271.9345","OBJECT_NAME":"STARLINK-2215","MEAN_MOTION":"15.06387042","EPHEMERIS_TYPE":"0","OBJECT_TYPE":"PAYLOAD","RA_OF_ASC_NODE":"85.7148","ECCENTRICITY":"0.00011550","LAUNCH_DATE":"2021-05-15","FILE":"3276616","NORAD_CAT_ID":"48567","CLASSIFICATION_TYPE":"U","MEAN_ELEMENT_THEORY":"SGP4","SITE":"AFETR","GP_ID":"194127807","COUNTRY_CODE":"US","SEMIMAJOR_AXIS":"6925.388","OBJECT_ID":"2021-041Q","ELEMENT_SET_NO":"999","BSTAR":"-0.00019717000000","TLE_LINE2":"2 48567  53.0555  85.7148 0001155  88.1776 271.9345 15.06387042 37284","PERIAPSIS":"546.453"}];
